#aV2016  1 14  0  0  0.00000000     288 DD+AD WGS84 FIT  NGA
## 1879 345600.00000000   300.00000000 57401 0.0000000000000
+   31     1  2  3  5  6  7  8  9 10 11 12 13 14 15 16 17 18
+         19 20 21 22 23 24 25 26 27 28 29 30 31 32  0  0  0
+          0  0  0  0  0  0  0  0  0  0  0  0  0  0  0  0  0
+          0  0  0  0  0  0  0  0  0  0  0  0  0  0  0  0  0
+          0  0  0  0  0  0  0  0  0  0  0  0  0  0  0  0  0
++         2  2  2  2  2  2  2  2  2  2  2  2  2  2  2  2  2
++         2  2  2  2  2  2  2  2  2  2  2  2  2  2  0  0  0
++         0  0  0  0  0  0  0  0  0  0  0  0  0  0  0  0  0
++         0  0  0  0  0  0  0  0  0  0  0  0  0  0  0  0  0
++         0  0  0  0  0  0  0  0  0  0  0  0  0  0  0  0  0
%c cc cc ccc ccc cccc cccc cccc cccc ccccc ccccc ccccc ccccc
%c cc cc ccc ccc cccc cccc cccc cccc ccccc ccccc ccccc ccccc
%f  0.0000000  0.000000000  0.00000000000  0.000000000000000
%f  0.0000000  0.000000000  0.00000000000  0.000000000000000
%i    0    0    0    0      0      0      0      0         0
%i    0    0    0    0      0      0      0      0         0
/*      NGA, ST. LOUIS,MO.                                  
/*   EPHEMERIS COMPUTED FROM 2 DAYS OF DATA                 
/*   EPOCHA v2.4 SMOOTHER                                   
/*   G1762 IERS2010 SATAF SATAPC                            
*  2016  1 14 21 50  0.00000000
P  1 -22327.846156 -13047.854620   6452.331101      9.146451                    
V  1  -4707.756601  -7189.092958 -30270.723518      0.009456                    
P  2  10013.476619  20703.102271  14055.887588    599.156599                    
V  2 -14797.867814  -8734.465702  23692.115739      0.003202                    
P  3 -13645.721379  -8336.428434  21203.854823    -11.568437                    
V  3   5270.472757 -26423.210213  -7010.918404     -0.050314                    
P  5   3464.545382  24209.706756 -10186.622617   -155.379451                    
V  5  -5084.965677  12262.894142  27796.806555      0.035314                    
P  6  -3438.838784  16029.052622  20903.055371    129.173272                    
V  6 -20874.939271 -16376.735579   9116.266901      0.062077                    
P  7 -19205.400101    -34.693120 -18382.322490    473.744961                    
V  7 -16814.202885 -16389.641410  17094.767306     -0.014358                    
P  8 -15276.806569  -8994.625262 -19723.667787    -20.048643                    
V  8  23170.603448  -9883.658713 -13393.110619     -0.014376                    
P  9 -25290.921036   7854.716284   2080.632657     49.968784                    
V  9   1461.124419  -3711.210113  31486.482212      0.078601                    
P 10  10925.384621 -21974.376639 -10091.663086     49.455515                    
V 10    387.297669  13093.796787 -28121.953747      0.000083                    
P 11 -23905.163832 -11276.181532  -3464.121342   -627.227671                    
V 11   5130.378819  -3166.782089 -29787.374683     -0.020433                    
P 12  11029.288453  12517.349857  20613.190616    360.959872                    
V 12  -6403.984426  25501.568824 -11783.813561      0.027509                    
P 13   6125.654203  13898.673054 -21919.350256   -178.464150                    
V 13 -26635.108911   6750.465020  -3272.971668     -0.026134                    
P 14  17896.855041 -14578.375168  13255.137434      9.193609                    
V 14  16451.133147  -2359.294847 -25427.132091     -0.023313                    
P 15  18800.085564   6415.935693 -17908.557943   -292.262404                    
V 15 -19927.016270  10552.993579 -16908.367777     -0.018850                    
P 16   -942.547862 -24305.052063 -10273.660707    -48.344018                    
V 16   4980.699824 -12174.129076  28942.575943      0.032869                    
P 17 -18246.750812  14716.396391  12610.637979   -198.770142                    
V 17 -15433.261376   2765.391209 -26428.972159     -0.007142                    
P 18  15147.787558 -12009.968679 -17583.733025    473.087377                    
V 18   -996.281341  23687.400930 -16829.677602      0.038801                    
P 19 -19522.681465  13605.691142  12037.896984   -524.426422                    
V 19 -15400.175679   2173.519421 -26512.048973     -0.001864                    
P 20  13944.695556  11109.145949 -19830.974774    385.723371                    
V 20  -3739.899476  24743.676198  11383.520270      0.026954                    
P 21  17276.889199  -4211.807922 -19089.988762   -505.223067                    
V 21  19243.422470  17278.366565  12817.186006     -0.020581                    
P 22   4040.806071 -26171.518276   -269.811823    411.242474                    
V 22   4016.675390   1203.061148 -30976.694682     -0.044716                    
P 23 -23486.897769  -1325.421992  12915.116212   -154.963486                    
V 23  14243.109426  -7618.000997  25025.722595     -0.019332                    
P 24  22082.609860  14517.243232   3486.879072    -10.767062                    
V 24   1650.812510   5076.104016 -31010.182163     -0.006096                    
P 25  15158.748360  -2567.696236  21530.735332    -99.585414                    
V 25  -4232.018532  27235.961319   6376.131267     -0.063828                    
P 26   4606.273564 -26138.351236    283.197236   -211.213457                    
V 26   2760.596160    823.839750  31767.911215     -0.166457                    
P 27  -4481.383833 -14355.907568 -21909.293103     53.439849                    
V 27  26068.500452  -9500.024500   1032.558512      0.034431                    
P 28 -11917.259923  21360.836996  -9642.028254    495.372337                    
V 28   1354.129951 -13227.388968 -29133.663168      0.027213                    
P 29  25717.294160  -4367.015883   4903.203924    651.681212                    
V 29  -5257.320827   4020.065225  31303.528023      0.011619                    
P 30 -11739.277949   9993.442772 -21633.759926     84.334091                    
V 30 -19699.670011 -19165.173838   1758.796067      0.047516                    
P 31   2305.040268 -16702.544702  20546.296175    287.023851                    
V 31  19980.537476  16489.960498  11580.341977     -0.016464                    
P 32  -6761.962796 -20219.619971  16085.809836     81.034356                    
V 32   6897.590891 -19289.841869 -20714.855796      0.127741                    
EOF
